IRIDIUM 150             
1 43257U 18030J   24337.58133555  .00000244  00000+0  80119-4 0  9999
2 43257  86.3987 165.2238 0001693  84.8813 275.2576 14.34219000349668
IRIDIUM 143             
1 43258U 18030K   24337.49253738  .00000017  00000+0 -92479-6 0  9999
2 43258  86.3989 165.3314 0001496  78.5209 281.6155 14.34217709349586
IRIDIUM 161             
1 43478U 18047C   24337.51984867  .00001148  00000+0  33525-3 0  9997
2 43478  86.4469 323.1938 0002214  83.9309 276.2144 14.43293527344125
IRIDIUM 152             
1 43479U 18047D   24337.39548621  .00000032  00000+0  44632-5 0  9992
2 43479  86.3945 323.1054 0002434  87.6141 272.5333 14.34218550341963
IRIDIUM 147             
1 43480U 18047E   24337.47159679  .00000446  00000+0  15211-3 0  9992
2 43480  86.3948 323.0688 0002541  92.7482 267.4005 14.34220804341979
IRIDIUM 110             
1 43481U 18047F   24337.33840285  .00000293  00000+0  97661-4 0  9998
2 43481  86.3951 323.2019 0002725  86.1023 274.0484 14.34220227341947
IRIDIUM 162             
1 43482U 18047G   24337.51356974  .00001141  00000+0  33326-3 0  9996
2 43482  86.4471 323.0942 0002497  85.2759 274.8727 14.43289883344114
IRIDIUM 160             
1 43569U 18061A   24337.42378049  .00000868  00000+0  30267-3 0  9991
2 43569  86.3947 291.5234 0002325  90.9592 269.1870 14.34219968332859
